ONEWEB-0509             
1 54127U 22138Q   24019.31385927  .00000098  00000+0  21353-3 0  9992
2 54127  87.9202 120.1184 0001882 111.2525 248.8809 13.19725142 60754
ONEWEB-0510             
1 54128U 22138R   24019.59514866  .00000095  00000+0  20264-3 0  9996
2 54128  87.9191  89.5169 0002231  96.4772 263.6616 13.20772362 63178
ONEWEB-0511             
1 54129U 22138S   24019.31069852  .00000071  00000+0  14605-3 0  9993
2 54129  87.9201 120.1209 0001569 122.0217 238.1068 13.19725074 60789
ONEWEB-0512             
1 54130U 22138T   24019.30280167  .00000130  00000+0  29269-3 0  9996
2 54130  87.9211 120.1268 0002226 119.7760 240.3594 13.19725856 60758
ONEWEB-0513             
1 54131U 22138U   24019.27359266  .00000052  00000+0  98054-4 0  9992
2 54131  87.9211 120.1308 0002103 126.2932 233.8395 13.19726299 60637
ONEWEB-0514             
1 54132U 22138V   24019.31859782  .00000085  00000+0  17880-3 0  9999
2 54132  87.9205 120.1233 0001693 107.9358 252.1959 13.19726889 60779
ONEWEB-0515             
1 54133U 22138W   24019.20374428  .00000086  00000+0  17957-3 0  9993
2 54133  87.9179  89.5757 0002117  67.3506 292.7851 13.20771099 63145
ONEWEB-0516             
1 54134U 22138X   24019.29332232  .00000159  00000+0  36496-3 0  9990
2 54134  87.9209 120.1285 0001896 106.3124 253.8218 13.19724634 60773
